[{"OBJECT_NAME":"STARLINK-30043","OBJECT_ID":"2023-102P","EPOCH":"2026-03-09T22:00:01.999584","MEAN_MOTION":15.16913406,"ECCENTRICITY":0.00016842,"INCLINATION":43,"RA_OF_ASC_NODE":246.5874,"ARG_OF_PERICENTER":259.2585,"MEAN_ANOMALY":70.8182,"EPHEMERIS_TYPE":0,"CLASSIFICATION_TYPE":"U","NORAD_CAT_ID":57417,"ELEMENT_SET_NO":999,"REV_AT_EPOCH":538,"BSTAR":0.0056084196,"MEAN_MOTION_DOT":0.0011416,"MEAN_MOTION_DDOT":0},{"OBJECT_NAME":"SCS-01 F","OBJECT_ID":"2025-100F","EPOCH":"2026-03-09T22:02:58.148448","MEAN_MOTION":15.20887248,"ECCENTRICITY":0.00088681,"INCLINATION":97.3705,"RA_OF_ASC_NODE":143.8729,"ARG_OF_PERICENTER":296.4312,"MEAN_ANOMALY":63.6013,"EPHEMERIS_TYPE":0,"CLASSIFICATION_TYPE":"U","NORAD_CAT_ID":63987,"ELEMENT_SET_NO":999,"REV_AT_EPOCH":4554,"BSTAR":0.0009265562,"MEAN_MOTION_DOT":0.0002047,"MEAN_MOTION_DDOT":0}]
